STARLINK-32646          
1 62307U 24239G   26068.60099537  .00041686  00000+0  14122-2 0  9995
2 62307  53.1574 181.3143 0001308  66.7329 293.3809 15.30189569 69557
KUIPER-00175            
1 67135U 25301C   26068.97960463  .00019968  00000+0  66732-3 0  9998
2 67135  51.8781  63.6978 0002279  50.5695 309.5490 15.30996371 13854
